[{"OBJECT_NAME":"SKYSAT-C9","OBJECT_ID":"2017-068C","EPOCH":"2026-03-09T21:47:44.094336","MEAN_MOTION":15.38897151,"ECCENTRICITY":0.00098921,"INCLINATION":97.4262,"RA_OF_ASC_NODE":205.0589,"ARG_OF_PERICENTER":132.0246,"MEAN_ANOMALY":228.1843,"EPHEMERIS_TYPE":0,"CLASSIFICATION_TYPE":"U","NORAD_CAT_ID":42989,"ELEMENT_SET_NO":999,"REV_AT_EPOCH":46747,"BSTAR":0.00044631703,"MEAN_MOTION_DOT":0.00017138,"MEAN_MOTION_DDOT":0},{"OBJECT_NAME":"KUIPER-00251","OBJECT_ID":"2025-301Z","EPOCH":"2026-03-09T22:54:15.151392","MEAN_MOTION":15.37641122,"ECCENTRICITY":0.00115658,"INCLINATION":51.8661,"RA_OF_ASC_NODE":64.2119,"ARG_OF_PERICENTER":47.4159,"MEAN_ANOMALY":312.7801,"EPHEMERIS_TYPE":0,"CLASSIFICATION_TYPE":"U","NORAD_CAT_ID":67156,"ELEMENT_SET_NO":999,"REV_AT_EPOCH":1396,"BSTAR":0.00094782211,"MEAN_MOTION_DOT":0.00035417,"MEAN_MOTION_DDOT":0}]
